NORAD_CAT_ID,OBJECT_NAME,OBJECT_TYPE,EPOCH,MEAN_MOTION,ECCENTRICITY,INCLINATION,RA_OF_ASC_NODE,ARG_OF_PERICENTER,MEAN_ANOMALY,BSTAR,MEAN_MOTION_DOT,MEAN_MOTION_DDOT,TLE_LINE0,TLE_LINE1,TLE_LINE2,SEMIMAJOR_AXIS,PERIOD,APOGEE,PERIGEE,DECAYED
49445.0,STARLINK-3122,PAYLOAD,2024-05-26 12:46:49,15.08835405,0.0001057,53.2162,267.1643,99.0913,261.0199,-1.1029e-05,-4.63e-06,0.0,0 STARLINK-3122,1 49445U 21104AP  24147.53251640 -.00000463  00000-0 -11029-4 0  9990,2 49445  53.2162 267.1643 0001057  99.0913 261.0199 15.08835405141395,6917.894,95.438,540.491,539.028,0.0
49445.0,STARLINK-3122,PAYLOAD,2024-05-26 14:22:12,15.08836137,0.0001344,53.2167,266.8677,91.6643,268.4503,1.7818e-05,-4e-08,0.0,0 STARLINK-3122,1 49445U 21104AP  24147.59875617 -.00000004  00000-0  17818-4 0  9994,2 49445  53.2167 266.8677 0001344  91.6643 268.4503 15.08836137140325,6917.892,95.438,540.687,538.827,0.0
49445.0,STARLINK-3122,PAYLOAD,2024-05-26 17:32:58,15.08841547,0.0001392,53.2175,266.2688,105.8998,254.2147,6.0655e-05,6.78e-06,0.0,0 STARLINK-3122,1 49445U 21104AP  24147.73123396  .00000678  00000-0  60655-4 0  9993,2 49445  53.2175 266.2688 0001392 105.8998 254.2147 15.08841547140344,6917.876,95.437,540.704,538.778,0.0
49445.0,STARLINK-3122,PAYLOAD,2024-05-27 01:29:53,15.08850193,0.0001086,53.2165,264.7869,83.1667,276.9449,0.0001924,2.776e-05,0.0,0 STARLINK-3122,1 49445U 21104AP  24148.06243016  .00002776  00000-0  19240-3 0  9996,2 49445  53.2165 264.7869 0001086  83.1667 276.9449 15.08850193141476,6917.849,95.437,540.466,538.963,0.0
49445.0,STARLINK-3122,PAYLOAD,2024-05-27 12:37:36,15.08840901,0.0001202,53.2167,262.7004,81.0675,279.0453,0.00020091,2.911e-05,0.0,0 STARLINK-3122,1 49445U 21104AP  24148.52611624  .00002911  00000-0  20091-3 0  9998,2 49445  53.2167 262.7004 0001202  81.0675 279.0453 15.08840901141546,6917.878,95.437,540.574,538.911,0.0
49445.0,STARLINK-3122,PAYLOAD,2024-05-27 14:12:59,15.08843067,0.000109,53.2171,262.408,83.7775,276.3342,0.00019786,2.863e-05,0.0,0 STARLINK-3122,1 49445U 21104AP  24148.59235569  .00002863  00000-0  19786-3 0  9990,2 49445  53.2171 262.4080 0001090  83.7775 276.3342 15.08843067140471,6917.871,95.437,540.49,538.982,0.0
49445.0,STARLINK-3122,PAYLOAD,2024-05-28 14:03:46,15.08841001,0.0001207,53.2174,257.9432,104.4257,255.687,7.8648e-05,9.64e-06,0.0,0 STARLINK-3122,1 49445U 21104AP  24149.58595520  .00000964  00000-0  78648-4 0  9999,2 49445  53.2174 257.9432 0001207 104.4257 255.6870 15.08841001140629,6917.877,95.437,540.577,538.907,0.0
49445.0,STARLINK-3122,PAYLOAD,2024-05-29 13:54:33,15.08837769,0.0001224,53.2174,253.4851,98.4075,261.7056,3.5098e-05,2.71e-06,0.0,0 STARLINK-3122,1 49445U 21104AP  24150.57955826  .00000271  00000-0  35098-4 0  9992,2 49445  53.2174 253.4851 0001224  98.4075 261.7056 15.08837769140770,6917.887,95.438,540.599,538.905,0.0
49445.0,STARLINK-3122,PAYLOAD,2024-05-30 12:09:57,15.08841142,0.0001205,53.2173,249.3224,100.2956,259.8172,0.00010355,1.361e-05,0.0,0 STARLINK-3122,1 49445U 21104AP  24151.50691590  .00001361  00000-0  10355-3 0  9990,2 49445  53.2173 249.3224 0001205 100.2956 259.8172 15.08841142140919,6917.877,95.437,540.576,538.908,0.0
49445.0,STARLINK-3122,PAYLOAD,2024-05-31 12:00:44,15.08844657,0.0001257,53.2177,244.8622,99.4607,260.6527,0.00013894,1.924e-05,0.0,0 STARLINK-3122,1 49445U 21104AP  24152.50051252  .00001924  00000-0  13894-3 0  9992,2 49445  53.2177 244.8622 0001257  99.4607 260.6527 15.08844657142149,6917.866,95.437,540.601,538.862,0.0
49445.0,STARLINK-3122,PAYLOAD,2024-05-31 13:36:07,15.08846215,0.0001227,53.2177,244.565,91.5897,268.5235,0.00015098,2.116e-05,0.0,0 STARLINK-3122,1 49445U 21104AP  24152.56675159  .00002116  00000-0  15098-3 0  9998,2 49445  53.2177 244.5650 0001227  91.5897 268.5235 15.08846215141074,6917.861,95.437,540.575,538.878,0.0
49445.0,STARLINK-3122,PAYLOAD,2024-05-31 15:11:30,15.08846119,0.000122,53.2176,244.2677,88.2573,271.8558,0.00014883,2.082e-05,0.0,0 STARLINK-3122,1 49445U 21104AP  24152.63299184  .00002082  00000-0  14883-3 0  9999,2 49445  53.2176 244.2677 0001220  88.2573 271.8558 15.08846119141085,6917.862,95.437,540.571,538.883,0.0
49445.0,STARLINK-3122,PAYLOAD,2024-05-31 23:08:25,15.08856263,0.000128,53.2178,242.7816,81.6896,278.4241,0.00020322,2.949e-05,0.0,0 STARLINK-3122,1 49445U 21104AP  24152.96418219  .00002949  00000-0  20322-3 0  9994,2 49445  53.2178 242.7816 0001280  81.6896 278.4241 15.08856263142215,6917.831,95.437,540.581,538.81,0.0
49445.0,STARLINK-3122,PAYLOAD,2024-06-01 13:26:55,15.0882976,0.0001378,53.2164,240.1041,85.5618,274.5531,-0.00014555,-2.603e-05,0.0,0 STARLINK-3122,1 49445U 21104AP  24153.56036013 -.00002603  00000-0 -14555-3 0  9999,2 49445  53.2164 240.1041 0001378  85.5618 274.5531 15.08829760142306,6917.912,95.438,540.73,538.823,0.0
49445.0,STARLINK-3122,PAYLOAD,2024-06-02 11:42:18,15.08840027,0.0001474,53.2164,235.9432,85.6174,274.4986,0.00016849,2.395e-05,0.0,0 STARLINK-3122,1 49445U 21104AP  24154.48771988  .00002395  00000-0  16849-3 0  9992,2 49445  53.2164 235.9432 0001474  85.6174 274.4986 15.08840027142444,6917.88,95.438,540.765,538.726,0.0
49445.0,STARLINK-3122,PAYLOAD,2024-06-03 11:33:06,15.08845866,0.0001771,53.2168,231.4799,98.4878,261.6315,0.00036673,5.554e-05,0.0,0 STARLINK-3122,1 49445U 21104AP  24155.48132054  .00005554  00000-0  36673-3 0  9995,2 49445  53.2168 231.4799 0001771  98.4878 261.6315 15.08845866141515,6917.862,95.437,540.953,538.502,0.0
49445.0,STARLINK-3122,PAYLOAD,2024-06-03 22:40:47,15.08852961,0.0001372,53.2154,229.3997,95.2313,264.8835,0.00037901,5.751e-05,0.0,0 STARLINK-3122,1 49445U 21104AP  24155.94499581  .00005751  00000-0  37901-3 0  9991,2 49445  53.2154 229.3997 0001372  95.2313 264.8835 15.08852961142665,6917.841,95.437,540.655,538.757,0.0
49445.0,STARLINK-3122,PAYLOAD,2024-06-04 11:23:52,15.08849249,0.0001497,53.2159,227.0208,87.2098,272.9066,0.00020708,3.01e-05,0.0,0 STARLINK-3122,1 49445U 21104AP  24156.47491565  .00003010  00000-0  20708-3 0  9997,2 49445  53.2159 227.0208 0001497  87.2098 272.9066 15.08849249142749,6917.852,95.437,540.753,538.682,0.0
49445.0,STARLINK-3122,PAYLOAD,2024-06-05 04:53:07,15.08840045,0.0001376,53.2155,223.7482,90.2738,269.8412,8.6599e-05,1.091e-05,0.0,0 STARLINK-3122,1 49445U 21104AP  24157.20355826  .00001091  00000-0  86599-4 0  9996,2 49445  53.2155 223.7482 0001376  90.2738 269.8412 15.08840045142850,6917.88,95.438,540.697,538.793,0.0
49445.0,STARLINK-3122,PAYLOAD,2024-06-05 11:14:40,15.08828451,0.0001271,53.2156,222.5593,92.7049,267.4089,-0.00014771,-2.637e-05,0.0,0 STARLINK-3122,1 49445U 21104AP  24157.46852251 -.00002637  00000-0 -14771-3 0  9999,2 49445  53.2156 222.5593 0001271  92.7049 267.4089 15.08828451142892,6917.916,95.438,540.66,538.901,0.0
49445.0,STARLINK-3122,PAYLOAD,2024-06-05 14:25:26,15.08828717,0.0001212,53.2158,221.9642,88.5862,271.5269,-0.00014787,-2.64e-05,0.0,0 STARLINK-3122,1 49445U 21104AP  24157.60100348 -.00002640  00000-0 -14787-3 0  9999,2 49445  53.2158 221.9642 0001212  88.5862 271.5269 15.08828717141837,6917.915,95.438,540.618,538.941,0.0
49445.0,STARLINK-3122,PAYLOAD,2024-06-05 20:46:59,15.08836461,0.0001251,53.2162,220.7764,91.6696,268.444,3.8006e-05,3.17e-06,0.0,0 STARLINK-3122,1 49445U 21104AP  24157.86596160  .00000317  00000-0  38006-4 0  9996,2 49445  53.2162 220.7764 0001251  91.6696 268.4440 15.08836461141872,6917.891,95.438,540.622,538.891,0.0
49445.0,STARLINK-3122,PAYLOAD,2024-06-06 11:05:27,15.08846224,0.000127,53.2161,218.1011,92.9144,267.1993,0.00075852,0.00011807,0.0,0 STARLINK-3122,1 49445U 21104AP  24158.46212419  .00011807  00000-0  75852-3 0  9990,2 49445  53.2161 218.1011 0001270  92.9144 267.1993 15.08846224141967,6917.861,95.437,540.605,538.848,0.0
49445.0,STARLINK-3122,PAYLOAD,2024-06-07 09:20:51,15.08845381,0.0001217,53.215,213.9384,92.5331,267.58,0.0002254,3.302e-05,0.0,0 STARLINK-3122,1 49445U 21104AP  24159.38948270  .00003302  00000-0  22540-3 0  9990,2 49445  53.2150 213.9384 0001217  92.5331 267.5800 15.08845381143186,6917.864,95.437,540.571,538.887,0.0
49445.0,STARLINK-3122,PAYLOAD,2024-06-07 20:28:33,15.0884979,0.0001205,53.2141,211.8563,83.9654,276.1476,0.00028602,4.268e-05,0.0,0 STARLINK-3122,1 49445U 21104AP  24159.85316036  .00004268  00000-0  28602-3 0  9998,2 49445  53.2141 211.8563 0001205  83.9654 276.1476 15.08849790142172,6917.85,95.437,540.549,538.882,0.0
49445.0,STARLINK-3122,PAYLOAD,2024-06-08 10:47:01,15.08848106,0.0001515,53.215,209.1807,85.9747,274.1418,0.00014192,1.972e-05,0.0,0 STARLINK-3122,1 49445U 21104AP  24160.44931973  .00001972  00000-0  14192-3 0  9996,2 49445  53.2150 209.1807 0001515  85.9747 274.1418 15.08848106142266,6917.856,95.437,540.769,538.673,0.0
49445.0,STARLINK-3122,PAYLOAD,2024-06-08 20:19:19,15.08852588,0.0001573,53.2153,207.3967,88.2227,271.8946,0.0002292,3.363e-05,0.0,0 STARLINK-3122,1 49445U 21104AP  24160.84675644  .00003363  00000-0  22920-3 0  9994,2 49445  53.2153 207.3967 0001573  88.2227 271.8946 15.08852588143405,6917.842,95.437,540.795,538.619,0.0
49445.0,STARLINK-3122,PAYLOAD,2024-06-09 10:37:48,15.08833028,0.0001531,53.215,204.7203,91.1264,268.9903,-4.0253e-05,-9.28e-06,0.0,0 STARLINK-3122,1 49445U 21104AP  24161.44292604 -.00000928  00000-0 -40253-4 0  9998,2 49445  53.2150 204.7203 0001531  91.1264 268.9903 15.08833028143491,6917.902,95.438,540.826,538.708,0.0
49445.0,STARLINK-3122,PAYLOAD,2024-06-09 20:10:07,15.08841098,0.0001547,53.2154,202.9341,92.6879,267.429,0.00013436,1.851e-05,0.0,0 STARLINK-3122,1 49445U 21104AP  24161.84036439  .00001851  00000-0  13436-3 0  9990,2 49445  53.2154 202.9341 0001547  92.6879 267.4290 15.08841098142479,6917.877,95.437,540.812,538.672,0.0
49445.0,STARLINK-3122,PAYLOAD,2024-06-10 12:03:58,15.08845908,0.0001436,53.2144,199.9607,97.1559,262.9596,0.00064789,0.0001004,0.0,0 STARLINK-3122,1 49445U 21104AP  24162.50276608  .00010040  00000-0  64789-3 0  9995,2 49445  53.2144 199.9607 0001436  97.1559 262.9596 15.08845908143654,6917.862,95.437,540.721,538.734,0.0
